<?xml version="1.0" encoding="utf-8"?>
<gpx version="1.1" creator="WalkLogger synthetic sample" xmlns="http://www.topografix.com/GPX/1/1">
  <metadata><name>合成サンプル: 上野から東京</name><desc>画面確認専用。実際の歩行記録ではありません。間隔は10秒です。</desc></metadata>
  <trk>
    <name>合成ルート</name>
    <trkseg>
      <trkpt lat="35.7138" lon="139.7773"><time>2026-10-05T02:00:00Z</time></trkpt>
      <trkpt lat="35.7133" lon="139.7772"><time>2026-10-05T02:00:10Z</time></trkpt>
      <trkpt lat="35.7128" lon="139.7771"><time>2026-10-05T02:00:20Z</time></trkpt>
      <trkpt lat="35.7123" lon="139.7770"><time>2026-10-05T02:00:30Z</time></trkpt>
      <trkpt lat="35.7118" lon="139.7768"><time>2026-10-05T02:00:40Z</time></trkpt>
      <trkpt lat="35.7113" lon="139.7766"><time>2026-10-05T02:00:50Z</time></trkpt>
      <trkpt lat="35.7108" lon="139.7764"><time>2026-10-05T02:01:00Z</time></trkpt>
      <trkpt lat="35.7103" lon="139.7762"><time>2026-10-05T02:01:10Z</time></trkpt>
      <trkpt lat="35.7098" lon="139.7760"><time>2026-10-05T02:01:20Z</time></trkpt>
      <trkpt lat="35.7093" lon="139.7758"><time>2026-10-05T02:01:30Z</time></trkpt>
      <trkpt lat="35.7088" lon="139.7756"><time>2026-10-05T02:01:40Z</time></trkpt>
      <trkpt lat="35.7083" lon="139.7754"><time>2026-10-05T02:01:50Z</time></trkpt>
      <trkpt lat="35.7078" lon="139.7752"><time>2026-10-05T02:02:00Z</time></trkpt>
      <trkpt lat="35.7073" lon="139.7750"><time>2026-10-05T02:02:10Z</time></trkpt>
      <trkpt lat="35.7068" lon="139.7748"><time>2026-10-05T02:02:20Z</time></trkpt>
      <trkpt lat="35.7063" lon="139.7746"><time>2026-10-05T02:02:30Z</time></trkpt>
      <trkpt lat="35.7058" lon="139.7744"><time>2026-10-05T02:02:40Z</time></trkpt>
      <trkpt lat="35.7053" lon="139.7742"><time>2026-10-05T02:02:50Z</time></trkpt>
      <trkpt lat="35.7048" lon="139.7740"><time>2026-10-05T02:03:00Z</time></trkpt>
      <trkpt lat="35.7043" lon="139.7738"><time>2026-10-05T02:03:10Z</time></trkpt>
      <trkpt lat="35.7038" lon="139.7736"><time>2026-10-05T02:03:20Z</time></trkpt>
      <trkpt lat="35.7033" lon="139.7734"><time>2026-10-05T02:03:30Z</time></trkpt>
      <trkpt lat="35.7028" lon="139.7732"><time>2026-10-05T02:03:40Z</time></trkpt>
      <trkpt lat="35.7023" lon="139.7730"><time>2026-10-05T02:03:50Z</time></trkpt>
      <trkpt lat="35.7018" lon="139.7728"><time>2026-10-05T02:04:00Z</time></trkpt>
      <trkpt lat="35.7013" lon="139.7726"><time>2026-10-05T02:04:10Z</time></trkpt>
      <trkpt lat="35.7008" lon="139.7724"><time>2026-10-05T02:04:20Z</time></trkpt>
      <trkpt lat="35.7003" lon="139.7722"><time>2026-10-05T02:04:30Z</time></trkpt>
      <trkpt lat="35.6998" lon="139.7720"><time>2026-10-05T02:04:40Z</time></trkpt>
      <trkpt lat="35.6993" lon="139.7718"><time>2026-10-05T02:04:50Z</time></trkpt>
      <trkpt lat="35.6988" lon="139.7716"><time>2026-10-05T02:05:00Z</time></trkpt>
      <trkpt lat="35.6983" lon="139.7714"><time>2026-10-05T02:05:10Z</time></trkpt>
      <trkpt lat="35.6978" lon="139.7712"><time>2026-10-05T02:05:20Z</time></trkpt>
      <trkpt lat="35.6973" lon="139.7710"><time>2026-10-05T02:05:30Z</time></trkpt>
      <trkpt lat="35.6968" lon="139.7708"><time>2026-10-05T02:05:40Z</time></trkpt>
      <trkpt lat="35.6963" lon="139.7706"><time>2026-10-05T02:05:50Z</time></trkpt>
      <trkpt lat="35.6958" lon="139.7704"><time>2026-10-05T02:06:00Z</time></trkpt>
      <trkpt lat="35.6953" lon="139.7702"><time>2026-10-05T02:06:10Z</time></trkpt>
      <trkpt lat="35.6948" lon="139.7700"><time>2026-10-05T02:06:20Z</time></trkpt>
      <trkpt lat="35.6943" lon="139.7698"><time>2026-10-05T02:06:30Z</time></trkpt>
      <trkpt lat="35.6938" lon="139.7696"><time>2026-10-05T02:06:40Z</time></trkpt>
      <trkpt lat="35.6933" lon="139.7694"><time>2026-10-05T02:06:50Z</time></trkpt>
      <trkpt lat="35.6928" lon="139.7692"><time>2026-10-05T02:07:00Z</time></trkpt>
      <trkpt lat="35.6923" lon="139.7690"><time>2026-10-05T02:07:10Z</time></trkpt>
      <trkpt lat="35.6918" lon="139.7688"><time>2026-10-05T02:07:20Z</time></trkpt>
      <trkpt lat="35.6913" lon="139.7686"><time>2026-10-05T02:07:30Z</time></trkpt>
      <trkpt lat="35.6908" lon="139.7684"><time>2026-10-05T02:07:40Z</time></trkpt>
      <trkpt lat="35.6903" lon="139.7682"><time>2026-10-05T02:07:50Z</time></trkpt>
      <trkpt lat="35.6898" lon="139.7680"><time>2026-10-05T02:08:00Z</time></trkpt>
      <trkpt lat="35.6893" lon="139.7678"><time>2026-10-05T02:08:10Z</time></trkpt>
      <trkpt lat="35.6888" lon="139.7676"><time>2026-10-05T02:08:20Z</time></trkpt>
      <trkpt lat="35.6883" lon="139.7674"><time>2026-10-05T02:08:30Z</time></trkpt>
      <trkpt lat="35.6878" lon="139.7672"><time>2026-10-05T02:08:40Z</time></trkpt>
      <trkpt lat="35.6873" lon="139.7670"><time>2026-10-05T02:08:50Z</time></trkpt>
      <trkpt lat="35.6868" lon="139.7668"><time>2026-10-05T02:09:00Z</time></trkpt>
      <trkpt lat="35.6863" lon="139.7666"><time>2026-10-05T02:09:10Z</time></trkpt>
      <trkpt lat="35.6858" lon="139.7664"><time>2026-10-05T02:09:20Z</time></trkpt>
      <trkpt lat="35.6853" lon="139.7662"><time>2026-10-05T02:09:30Z</time></trkpt>
      <trkpt lat="35.6848" lon="139.7663"><time>2026-10-05T02:09:40Z</time></trkpt>
      <trkpt lat="35.6843" lon="139.7665"><time>2026-10-05T02:09:50Z</time></trkpt>
      <trkpt lat="35.6838" lon="139.7667"><time>2026-10-05T02:10:00Z</time></trkpt>
      <trkpt lat="35.6833" lon="139.7669"><time>2026-10-05T02:10:10Z</time></trkpt>
      <trkpt lat="35.6828" lon="139.7671"><time>2026-10-05T02:10:20Z</time></trkpt>
      <trkpt lat="35.6823" lon="139.7672"><time>2026-10-05T02:10:30Z</time></trkpt>
      <trkpt lat="35.6818" lon="139.7672"><time>2026-10-05T02:10:40Z</time></trkpt>
      <trkpt lat="35.6813" lon="139.7672"><time>2026-10-05T02:10:50Z</time></trkpt>
    </trkseg>
  </trk>
</gpx>
